{
    "links": {
        "self": "http://www.neowsapp.com/rest/v1/neo/3626397?api_key=iIulBulltgU6a56xZRHN4H3l9WmuAYTsLGpBGhQ2"
    },
    "id": "3626397",
    "neo_reference_id": "3626397",
    "name": "(2013 CU82)",
    "designation": "2013 CU82",
    "nasa_jpl_url": "http://ssd.jpl.nasa.gov/sbdb.cgi?sstr=3626397",
    "absolute_magnitude_h": 21.0,
    "estimated_diameter": {
        "kilometers": {
            "estimated_diameter_min": 0.1677084622,
            "estimated_diameter_max": 0.3750075218
        },
        "meters": {
            "estimated_diameter_min": 167.7084621628,
            "estimated_diameter_max": 375.0075217981
        },
        "miles": {
            "estimated_diameter_min": 0.1042091748,
            "estimated_diameter_max": 0.2330187988
        },
        "feet": {
            "estimated_diameter_min": 550.2246310023,
            "estimated_diameter_max": 1230.3396778159
        }
    },
    "is_potentially_hazardous_asteroid": false,
    "close_approach_data": [
        {
            "close_approach_date": "2013-04-04",
            "close_approach_date_full": "2013-Apr-04 20:04",
            "epoch_date_close_approach": 1365105840000,
            "relative_velocity": {
                "kilometers_per_second": "15.7781184221",
                "kilometers_per_hour": "56801.2263195186",
                "miles_per_hour": "35294.0730983698"
            },
            "miss_distance": {
                "astronomical": "0.3151276966",
                "lunar": "122.5846739774",
                "kilometers": "47142432.189366242",
                "miles": "29292949.0303764596"
            },
            "orbiting_body": "Earth"
        }
    ],
    "orbital_data": {
        "orbit_id": "10",
        "orbit_determination_date": "2017-04-06 08:46:52",
        "first_observation_date": "2013-02-09",
        "last_observation_date": "2013-03-03",
        "data_arc_in_days": 22,
        "observations_used": 32,
        "orbit_uncertainty": "8",
        "minimum_orbit_intersection": ".101809",
        "jupiter_tisserand_invariant": "2.954",
        "epoch_osculation": "2456340.5",
        "eccentricity": ".7736687621297172",
        "semi_major_axis": "2.48480035410206",
        "inclination": "10.79224036788723",
        "ascending_node_longitude": "317.7697322144039",
        "orbital_period": "1430.657504474135",
        "perihelion_distance": ".5623879400044361",
        "perihelion_argument": "303.2423178737222",
        "aphelion_distance": "4.407212768199684",
        "perihelion_time": "2456424.866241581976",
        "mean_anomaly": "338.7707072625498",
        "mean_motion": ".2516325527767212",
        "equinox": "J2000",
        "orbit_class": {
            "orbit_class_type": "APO",
            "orbit_class_description": "Near-Earth asteroid orbits which cross the Earth’s orbit similar to that of 1862 Apollo",
            "orbit_class_range": "a (semi-major axis) > 1.0 AU; q (perihelion) < 1.017 AU"
        }
    },
    "is_sentry_object": false
}